[{"OBJECT_NAME":"STARLINK-30770","OBJECT_ID":"2023-162Q","EPOCH":"2026-01-02T17:06:03.653856","MEAN_MOTION":15.02554199,"ECCENTRICITY":0.0001108,"INCLINATION":43.0028,"RA_OF_ASC_NODE":131.7121,"ARG_OF_PERICENTER":280.4544,"MEAN_ANOMALY":79.6174,"EPHEMERIS_TYPE":0,"CLASSIFICATION_TYPE":"U","NORAD_CAT_ID":58132,"ELEMENT_SET_NO":999,"REV_AT_EPOCH":12237,"BSTAR":0.00027589,"MEAN_MOTION_DOT":3.527e-5,"MEAN_MOTION_DDOT":0},{"OBJECT_NAME":"STARLINK-30758","OBJECT_ID":"2023-162R","EPOCH":"2026-01-02T09:53:36.609792","MEAN_MOTION":15.02533684,"ECCENTRICITY":0.00015714,"INCLINATION":43.003,"RA_OF_ASC_NODE":132.9232,"ARG_OF_PERICENTER":275.0209,"MEAN_ANOMALY":85.0454,"EPHEMERIS_TYPE":0,"CLASSIFICATION_TYPE":"U","NORAD_CAT_ID":58133,"ELEMENT_SET_NO":999,"REV_AT_EPOCH":12233,"BSTAR":3.121725e-5,"MEAN_MOTION_DOT":2.18e-6,"MEAN_MOTION_DDOT":0},{"OBJECT_NAME":"STARLINK-30761","OBJECT_ID":"2023-162S","EPOCH":"2026-01-02T17:01:16.160448","MEAN_MOTION":15.02537269,"ECCENTRICITY":0.0001262,"INCLINATION":43.0014,"RA_OF_ASC_NODE":131.6953,"ARG_OF_PERICENTER":280.3202,"MEAN_ANOMALY":79.7498,"EPHEMERIS_TYPE":0,"CLASSIFICATION_TYPE":"U","NORAD_CAT_ID":58134,"ELEMENT_SET_NO":999,"REV_AT_EPOCH":12237,"BSTAR":6.8584e-5,"MEAN_MOTION_DOT":7.23e-6,"MEAN_MOTION_DDOT":0},{"OBJECT_NAME":"STARLINK-30772","OBJECT_ID":"2023-162T","EPOCH":"2026-01-02T09:50:34.716192","MEAN_MOTION":15.02534483,"ECCENTRICITY":0.00015936,"INCLINATION":43.0039,"RA_OF_ASC_NODE":133.7524,"ARG_OF_PERICENTER":269.2494,"MEAN_ANOMALY":90.8165,"EPHEMERIS_TYPE":0,"CLASSIFICATION_TYPE":"U","NORAD_CAT_ID":58135,"ELEMENT_SET_NO":999,"REV_AT_EPOCH":12232,"BSTAR":6.7996789e-5,"MEAN_MOTION_DOT":7.15e-6,"MEAN_MOTION_DDOT":0},{"OBJECT_NAME":"STARLINK-30776","OBJECT_ID":"2023-162U","EPOCH":"2026-01-02T09:37:47.215488","MEAN_MOTION":15.02534722,"ECCENTRICITY":0.00015029,"INCLINATION":43.0002,"RA_OF_ASC_NODE":133.6631,"ARG_OF_PERICENTER":274.5204,"MEAN_ANOMALY":85.5467,"EPHEMERIS_TYPE":0,"CLASSIFICATION_TYPE":"U","NORAD_CAT_ID":58136,"ELEMENT_SET_NO":999,"REV_AT_EPOCH":12232,"BSTAR":3.9926595e-5,"MEAN_MOTION_DOT":3.36e-6,"MEAN_MOTION_DDOT":0},{"OBJECT_NAME":"STARLINK-30782","OBJECT_ID":"2023-162V","EPOCH":"2026-01-02T08:05:15.729504","MEAN_MOTION":15.02535608,"ECCENTRICITY":0.00017297,"INCLINATION":43.0046,"RA_OF_ASC_NODE":134.0645,"ARG_OF_PERICENTER":276.1783,"MEAN_ANOMALY":83.8862,"EPHEMERIS_TYPE":0,"CLASSIFICATION_TYPE":"U","NORAD_CAT_ID":58137,"ELEMENT_SET_NO":999,"REV_AT_EPOCH":12231,"BSTAR":8.7793576e-5,"MEAN_MOTION_DOT":9.82e-6,"MEAN_MOTION_DDOT":0},{"OBJECT_NAME":"STARLINK-30769","OBJECT_ID":"2023-162W","EPOCH":"2026-01-02T15:54:18.907776","MEAN_MOTION":15.02527593,"ECCENTRICITY":0.00020992,"INCLINATION":42.9992,"RA_OF_ASC_NODE":132.2036,"ARG_OF_PERICENTER":278.1494,"MEAN_ANOMALY":81.911,"EPHEMERIS_TYPE":0,"CLASSIFICATION_TYPE":"U","NORAD_CAT_ID":58138,"ELEMENT_SET_NO":999,"REV_AT_EPOCH":12236,"BSTAR":-3.6272862e-5,"MEAN_MOTION_DOT":-6.94e-6,"MEAN_MOTION_DDOT":0},{"OBJECT_NAME":"STARLINK-30775","OBJECT_ID":"2023-162X","EPOCH":"2026-01-02T09:36:11.805696","MEAN_MOTION":15.02533784,"ECCENTRICITY":0.00015659,"INCLINATION":43.0025,"RA_OF_ASC_NODE":133.6767,"ARG_OF_PERICENTER":270.8565,"MEAN_ANOMALY":89.2098,"EPHEMERIS_TYPE":0,"CLASSIFICATION_TYPE":"U","NORAD_CAT_ID":58139,"ELEMENT_SET_NO":999,"REV_AT_EPOCH":12232,"BSTAR":1.2517731e-5,"MEAN_MOTION_DOT":-3.5e-7,"MEAN_MOTION_DDOT":0},{"OBJECT_NAME":"STARLINK-30780","OBJECT_ID":"2023-162Y","EPOCH":"2026-01-02T15:49:30.972864","MEAN_MOTION":15.02536271,"ECCENTRICITY":7.955e-5,"INCLINATION":43.0017,"RA_OF_ASC_NODE":132.1807,"ARG_OF_PERICENTER":270.5592,"MEAN_ANOMALY":89.5159,"EPHEMERIS_TYPE":0,"CLASSIFICATION_TYPE":"U","NORAD_CAT_ID":58140,"ELEMENT_SET_NO":999,"REV_AT_EPOCH":12236,"BSTAR":5.4133925e-5,"MEAN_MOTION_DOT":5.28e-6,"MEAN_MOTION_DDOT":0},{"OBJECT_NAME":"STARLINK-30802","OBJECT_ID":"2023-166A","EPOCH":"2026-01-02T17:07:55.932384","MEAN_MOTION":15.30190821,"ECCENTRICITY":0.0001151,"INCLINATION":53.1598,"RA_OF_ASC_NODE":166.3661,"ARG_OF_PERICENTER":88.6195,"MEAN_ANOMALY":271.4937,"EPHEMERIS_TYPE":0,"CLASSIFICATION_TYPE":"U","NORAD_CAT_ID":58150,"ELEMENT_SET_NO":999,"REV_AT_EPOCH":12307,"BSTAR":4.1926e-5,"MEAN_MOTION_DOT":8.82e-6,"MEAN_MOTION_DDOT":0},{"OBJECT_NAME":"STARLINK-30834","OBJECT_ID":"2023-166B","EPOCH":"2026-01-02T18:48:00.906912","MEAN_MOTION":15.30201331,"ECCENTRICITY":0.0001084,"INCLINATION":53.1583,"RA_OF_ASC_NODE":165.8831,"ARG_OF_PERICENTER":58.6077,"MEAN_ANOMALY":301.503,"EPHEMERIS_TYPE":0,"CLASSIFICATION_TYPE":"U","NORAD_CAT_ID":58151,"ELEMENT_SET_NO":999,"REV_AT_EPOCH":12308,"BSTAR":0.00071763,"MEAN_MOTION_DOT":0.00020956,"MEAN_MOTION_DDOT":0},{"OBJECT_NAME":"STARLINK-30833","OBJECT_ID":"2023-166C","EPOCH":"2026-01-02T20:13:00.342912","MEAN_MOTION":15.30165926,"ECCENTRICITY":0.0001322,"INCLINATION":53.1599,"RA_OF_ASC_NODE":165.7462,"ARG_OF_PERICENTER":87.5707,"MEAN_ANOMALY":272.5445,"EPHEMERIS_TYPE":0,"CLASSIFICATION_TYPE":"U","NORAD_CAT_ID":58152,"ELEMENT_SET_NO":999,"REV_AT_EPOCH":12309,"BSTAR":6.8464e-5,"MEAN_MOTION_DOT":1.667e-5,"MEAN_MOTION_DDOT":0},{"OBJECT_NAME":"STARLINK-30831","OBJECT_ID":"2023-166D","EPOCH":"2026-01-02T16:40:34.895712","MEAN_MOTION":15.30191298,"ECCENTRICITY":9.27e-5,"INCLINATION":53.1603,"RA_OF_ASC_NODE":166.2645,"ARG_OF_PERICENTER":107.403,"MEAN_ANOMALY":252.7072,"EPHEMERIS_TYPE":0,"CLASSIFICATION_TYPE":"U","NORAD_CAT_ID":58153,"ELEMENT_SET_NO":999,"REV_AT_EPOCH":12307,"BSTAR":2.8198e-5,"MEAN_MOTION_DOT":4.76e-6,"MEAN_MOTION_DDOT":0},{"OBJECT_NAME":"STARLINK-30797","OBJECT_ID":"2023-166E","EPOCH":"2026-01-02T17:18:31.894272","MEAN_MOTION":15.30192518,"ECCENTRICITY":0.0001403,"INCLINATION":53.1604,"RA_OF_ASC_NODE":166.2074,"ARG_OF_PERICENTER":60.5086,"MEAN_ANOMALY":299.6054,"EPHEMERIS_TYPE":0,"CLASSIFICATION_TYPE":"U","NORAD_CAT_ID":58154,"ELEMENT_SET_NO":999,"REV_AT_EPOCH":12292,"BSTAR":6.4014e-5,"MEAN_MOTION_DOT":1.537e-5,"MEAN_MOTION_DDOT":0},{"OBJECT_NAME":"STARLINK-30804","OBJECT_ID":"2023-166F","EPOCH":"2026-01-02T18:29:49.750080","MEAN_MOTION":15.30188763,"ECCENTRICITY":7.28e-5,"INCLINATION":53.1598,"RA_OF_ASC_NODE":166.0207,"ARG_OF_PERICENTER":76.8076,"MEAN_ANOMALY":283.3006,"EPHEMERIS_TYPE":0,"CLASSIFICATION_TYPE":"U","NORAD_CAT_ID":58155,"ELEMENT_SET_NO":999,"REV_AT_EPOCH":12308,"BSTAR":0.00019286,"MEAN_MOTION_DOT":5.355e-5,"MEAN_MOTION_DDOT":0},{"OBJECT_NAME":"STARLINK-30784","OBJECT_ID":"2023-166G","EPOCH":"2026-01-02T17:09:27.062784","MEAN_MOTION":15.30194948,"ECCENTRICITY":9.59e-5,"INCLINATION":53.1592,"RA_OF_ASC_NODE":166.3749,"ARG_OF_PERICENTER":81.1923,"MEAN_ANOMALY":278.9186,"EPHEMERIS_TYPE":0,"CLASSIFICATION_TYPE":"U","NORAD_CAT_ID":58156,"ELEMENT_SET_NO":999,"REV_AT_EPOCH":12292,"BSTAR":5.6263e-5,"MEAN_MOTION_DOT":1.307e-5,"MEAN_MOTION_DDOT":0}]
