STARLINK-30770          
1 58132U 23162Q   26002.71254229  .00003527  00000+0  27589-3 0  9995
2 58132  43.0028 131.7121 0001108 280.4544  79.6174 15.02554199122371
STARLINK-30758          
1 58133U 23162R   26002.41222928  .00000218  00000+0  31217-4 0  9992
2 58133  43.0030 132.9232 0001571 275.0209  85.0454 15.02533684122337
STARLINK-30761          
1 58134U 23162S   26002.70921482  .00000723  00000+0  68584-4 0  9994
2 58134  43.0014 131.6953 0001262 280.3202  79.7498 15.02537269122370
STARLINK-30772          
1 58135U 23162T   26002.41012403  .00000715  00000+0  67997-4 0  9995
2 58135  43.0039 133.7524 0001593 269.2494  90.8165 15.02534483122326
STARLINK-30776          
1 58136U 23162U   26002.40124092  .00000336  00000+0  39927-4 0  9994
2 58136  43.0002 133.6631 0001502 274.5204  85.5467 15.02534722122325
STARLINK-30782          
1 58137U 23162V   26002.33698761  .00000982  00000+0  87794-4 0  9998
2 58137  43.0046 134.0645 0001729 276.1783  83.8862 15.02535608122318
STARLINK-30769          
1 58138U 23162W   26002.66271884 -.00000694  00000+0 -36273-4 0  9996
2 58138  42.9992 132.2036 0002099 278.1494  81.9110 15.02527593122367
STARLINK-30775          
1 58139U 23162X   26002.40013664 -.00000035  00000+0  12518-4 0  9993
2 58139  43.0025 133.6767 0001565 270.8565  89.2098 15.02533784122329
STARLINK-30780          
1 58140U 23162Y   26002.65938626  .00000528  00000+0  54134-4 0  9992
2 58140  43.0017 132.1807 0000795 270.5592  89.5159 15.02536271122361
STARLINK-30802          
1 58150U 23166A   26002.71384181  .00000882  00000+0  41926-4 0  9993
2 58150  53.1598 166.3661 0001151  88.6195 271.4937 15.30190821123072
STARLINK-30834          
1 58151U 23166B   26002.78334383  .00020956  00000+0  71763-3 0  9995
2 58151  53.1583 165.8831 0001084  58.6077 301.5030 15.30201331123080
STARLINK-30833          
1 58152U 23166C   26002.84236508  .00001667  00000+0  68464-4 0  9996
2 58152  53.1599 165.7462 0001322  87.5707 272.5445 15.30165926123090
STARLINK-30831          
1 58153U 23166D   26002.69484833  .00000476  00000+0  28198-4 0  9993
2 58153  53.1603 166.2645 0000927 107.4030 252.7072 15.30191298123072
STARLINK-30797          
1 58154U 23166E   26002.72120248  .00001537  00000+0  64014-4 0  9991
2 58154  53.1604 166.2074 0001403  60.5086 299.6054 15.30192518122929
STARLINK-30804          
1 58155U 23166F   26002.77071470  .00005355  00000+0  19286-3 0  9991
2 58155  53.1598 166.0207 0000728  76.8076 283.3006 15.30188763123088
STARLINK-30784          
1 58156U 23166G   26002.71489656  .00001307  00000+0  56263-4 0  9995
2 58156  53.1592 166.3749 0000959  81.1923 278.9186 15.30194948122926
